NORAD_CAT_ID,OBJECT_NAME,OBJECT_TYPE,EPOCH,MEAN_MOTION,ECCENTRICITY,INCLINATION,RA_OF_ASC_NODE,ARG_OF_PERICENTER,MEAN_ANOMALY,BSTAR,MEAN_MOTION_DOT,MEAN_MOTION_DDOT,TLE_LINE0,TLE_LINE1,TLE_LINE2,SEMIMAJOR_AXIS,PERIOD,APOGEE,PERIGEE,DECAYED
54096.0,STARLINK-5188,PAYLOAD,2022-11-06 14:00:01,15.73225334,0.0002094,53.2163,63.8747,19.8858,265.5021,-0.00031659,-0.00044868,0.0,0 STARLINK-5188,1 54096U 22136AX  22310.58334491 -.00044868  00000-0 -31659-3 0  9992,2 54096  53.2163  63.8747 0002094  19.8858 265.5021 15.73225334  3161,6727.823,91.532,351.097,348.279,0.0
54096.0,STARLINK-5188,PAYLOAD,2022-11-07 08:00:01,15.73157585,0.0002067,53.2167,60.162,18.5418,196.9399,0.00044132,0.00061662,0.0,0 STARLINK-5188,1 54096U 22136AX  22311.33334491  .00061662  00000-0  44132-3 0  9995,2 54096  53.2167  60.1620 0002067  18.5418 196.9399 15.73157585  3283,6728.016,91.536,351.272,348.49,0.0
54096.0,STARLINK-5188,PAYLOAD,2022-11-07 22:00:00,15.73281068,0.0002401,53.216,57.2767,17.6663,263.4129,-0.00049702,-0.00070049,0.0,0 STARLINK-5188,1 54096U 22136AX  22311.91667824 -.00070049  00000-0 -49702-3 0  9997,2 54096  53.2160  57.2767 0002401  17.6663 263.4129 15.73281068  1305,6727.6640000000025,91.528,351.144,347.914,0.0
54096.0,STARLINK-5188,PAYLOAD,2022-11-08 00:00:02,15.73323575,0.0002377,53.2162,56.8637,18.3319,15.0931,-0.00025246,-0.00036094,0.0,0 STARLINK-5188,1 54096U 22136AX  22312.00002315 -.00036094  00000-0 -25246-3 0  9995,2 54096  53.2162  56.8637 0002377  18.3319  15.0931 15.73323575  3399,6727.543000000002,91.526,351.00699999999995,347.809,0.0
54096.0,STARLINK-5188,PAYLOAD,2022-11-08 14:00:01,15.73313415,0.0002532,53.2166,53.978,16.0237,83.141,-0.00025299,-0.00036154,0.0,0 STARLINK-5188,1 54096U 22136AX  22312.58334491 -.00036154  00000-0 -25299-3 0  9996,2 54096  53.2166  53.9780 0002532  16.0237  83.1410 15.73313415  1306,6727.571999999999,91.527,351.14,347.733,0.0
54096.0,STARLINK-5188,PAYLOAD,2022-11-08 22:00:00,15.73347067,0.0002538,53.2167,52.3278,13.5295,174.6815,-0.0011636,-0.00161873,0.0,0 STARLINK-5188,1 54096U 22136AX  22312.91667824 -.00161873  00000-0 -11636-2 0  9998,2 54096  53.2167  52.3278 0002538  13.5295 174.6815 15.73347067  3536,6727.476,91.525,351.048,347.6330000000001,0.0
54096.0,STARLINK-5188,PAYLOAD,2022-11-09 14:00:01,15.73044443,0.0002865,53.2165,49.0296,21.0371,345.1095,0.00057089,0.0007974,0.0,0 STARLINK-5188,1 54096U 22136AX  22313.58334491  .00079740  00000-0  57089-3 0  9995,2 54096  53.2165  49.0296 0002865  21.0371 345.1095 15.73044443  1309,6728.339,91.542,352.131,348.276,0.0
54096.0,STARLINK-5188,PAYLOAD,2022-11-09 22:00:01,15.73139386,0.0002793,53.216,47.3797,18.3845,76.5827,-0.00057468,-0.0008032,0.0,0 STARLINK-5188,1 54096U 22136AX  22313.91668981 -.00080320  00000-0 -57468-3 0  9995,2 54096  53.2160  47.3797 0002793  18.3845  76.5827 15.73139386  3699,6728.068,91.537,351.81199999999984,348.05400000000014,0.0
54096.0,STARLINK-5188,PAYLOAD,2022-11-10 06:00:00,15.73063916,0.0002578,53.2163,45.7294,18.1886,165.5367,0.00066922,0.00093814,0.0,0 STARLINK-5188,1 54096U 22136AX  22314.25001157  .00093814  00000-0  66922-3 0  9994,2 54096  53.2163  45.7294 0002578  18.1886 165.5367 15.73063916  3749,6728.283,91.541,351.8830000000001,348.414,0.0
54096.0,STARLINK-5188,PAYLOAD,2022-11-10 14:00:01,15.73113348,0.0002949,53.2164,44.0823,17.5488,254.9825,0.00052145,0.00072938,0.0,0 STARLINK-5188,1 54096U 22136AX  22314.58334491  .00072938  00000-0  52145-3 0  9996,2 54096  53.2164  44.0823 0002949  17.5488 254.9825 15.73113348  1300,6728.142,91.538,351.991,348.023,0.0
54096.0,STARLINK-5188,PAYLOAD,2022-11-10 22:00:00,15.73182998,0.0002925,53.2164,42.432,17.2221,344.1585,0.00022523,0.00031087,0.0,0 STARLINK-5188,1 54096U 22136AX  22314.91667824  .00031087  00000-0  22523-3 0  9999,2 54096  53.2164  42.4320 0002925  17.2221 344.1585 15.73182998  3854,6727.944,91.534,351.777,347.841,0.0
54096.0,STARLINK-5188,PAYLOAD,2022-11-11 14:00:01,15.73171112,0.0002855,53.2161,39.1343,24.1787,155.0161,-0.0003135,-0.00044344,0.0,0 STARLINK-5188,1 54096U 22136AX  22315.58334491 -.00044344  00000-0 -31350-3 0  9994,2 54096  53.2161  39.1343 0002855  24.1787 155.0161 15.73171112  1308,6727.978,91.535,351.76300000000015,347.922,0.0
54096.0,STARLINK-5188,PAYLOAD,2022-11-11 16:00:01,15.73147608,0.0002863,53.2159,38.7222,22.9726,268.5142,-1.9862e-05,-3.403e-05,0.0,0 STARLINK-5188,1 54096U 22136AX  22315.66668981 -.00003403  00000-0 -19862-4 0  9993,2 54096  53.2159  38.7222 0002863  22.9726 268.5142 15.73147608  3960,6728.045,91.536,351.836,347.983,0.0
54096.0,STARLINK-5188,PAYLOAD,2022-11-11 22:00:00,15.73160325,0.0002894,53.2162,37.4809,26.9138,241.2178,0.0024037,0.00350602,0.0,0 STARLINK-5188,1 54096U 22136AX  22315.91667824  .00350602  00000-0  24037-2 0  9998,2 54096  53.2162  37.4809 0002894  26.9138 241.2178 15.73160325  4000,6728.0080000000025,91.535,351.82,347.926,0.0
54096.0,STARLINK-5188,PAYLOAD,2022-11-12 08:00:01,15.73318125,0.000256,53.2159,35.4214,21.915,87.4668,-0.00068808,-0.00096593,0.0,0 STARLINK-5188,1 54096U 22136AX  22316.33334491 -.00096593  00000-0 -68808-3 0  9999,2 54096  53.2159  35.4214 0002560  21.9150  87.4668 15.73318125  4077,6727.558000000001,91.526,351.146,347.701,0.0
54096.0,STARLINK-5188,PAYLOAD,2022-11-12 14:00:01,15.73246558,0.0002738,53.216,34.1855,16.6603,69.5028,-8.750899999999999e-05,-0.00012912,0.0,0 STARLINK-5188,1 54096U 22136AX  22316.58334491 -.00012912  00000-0 -87509-4 0  9999,2 54096  53.2160  34.1855 0002738  16.6603  69.5028 15.73246558  1301,6727.762,91.53,351.469,347.785,0.0
54096.0,STARLINK-5188,PAYLOAD,2022-11-12 22:00:00,15.73251456,0.0002714,53.216,32.5345,15.7742,159.38,-0.00071331,-0.00099793,0.0,0 STARLINK-5188,1 54096U 22136AX  22316.91667824 -.00099793  00000-0 -71331-3 0  9992,2 54096  53.2160  32.5345 0002714  15.7742 159.3800 15.73251456  4161,6727.748000000001,91.53,351.439,347.788,0.0
54096.0,STARLINK-5188,PAYLOAD,2022-11-13 06:00:02,15.73215754,0.0002633,53.216,30.8843,19.4119,244.7453,-3.0313000000000013e-05,-4.878e-05,0.0,0 STARLINK-5188,1 54096U 22136AX  22317.25002315 -.00004878  00000-0 -30313-4 0  9994,2 54096  53.2160  30.8843 0002633  19.4119 244.7453 15.73215754  4214,6727.85,91.532,351.487,347.944,0.0
54096.0,STARLINK-5188,PAYLOAD,2022-11-13 14:00:01,15.73172056,0.0002923,53.2156,29.2367,16.1195,336.9292,0.00028256,0.00039178,0.0,0 STARLINK-5188,1 54096U 22136AX  22317.58334491  .00039178  00000-0  28256-3 0  9994,2 54096  53.2156  29.2367 0002923  16.1195 336.9292 15.73172056  1301,6727.975,91.535,351.806,347.87300000000016,0.0
54096.0,STARLINK-5188,PAYLOAD,2022-11-13 22:00:00,15.73185497,0.0002723,53.2153,27.5857,12.4533,69.5105,-2.0139e-05,-3.446e-05,0.0,0 STARLINK-5188,1 54096U 22136AX  22317.91667824 -.00003446  00000-0 -20139-4 0  9994,2 54096  53.2153  27.5857 0002723  12.4533  69.5105 15.73185497  1301,6727.937,91.534,351.634,347.97,0.0
54096.0,STARLINK-5188,PAYLOAD,2022-11-14 14:00:01,15.73229099,0.0002997,53.2157,24.2875,11.2854,248.5416,-3.1136e-05,-4.997e-05,0.0,0 STARLINK-5188,1 54096U 22136AX  22318.58334491 -.00004997  00000-0 -31136-4 0  9990,2 54096  53.2157  24.2875 0002997  11.2854 248.5416 15.73229099  1306,6727.812,91.531,351.694,347.661,0.0
54096.0,STARLINK-5188,PAYLOAD,2022-11-14 22:00:00,15.73249633,0.0002892,53.2157,22.6369,12.4475,336.3259,-0.00048574,-0.00068402,0.0,0 STARLINK-5188,1 54096U 22136AX  22318.91667824 -.00068402  00000-0 -48574-3 0  9990,2 54096  53.2157  22.6369 0002892  12.4475 336.3259 15.73249633  1309,6727.754,91.53,351.564,347.673,0.0
54096.0,STARLINK-5188,PAYLOAD,2022-11-15 08:00:01,15.73193001,0.0003113,53.2156,20.5752,20.5423,169.4886,-0.0002031,-0.00029028,0.0,0 STARLINK-5188,1 54096U 22136AX  22319.33335648 -.00029028  00000-0 -20310-3 0  9992,2 54096  53.2156  20.5752 0003113  20.5423 169.4886 15.73193001  4548,6727.915,91.534,351.875,347.686,0.0
54096.0,STARLINK-5188,PAYLOAD,2022-11-15 14:00:01,15.73111658,0.0003001,53.2172,19.3335,15.2071,151.4863,0.00098591,0.00139555,0.0,0 STARLINK-5188,1 54096U 22136AX  22319.58334491  .00139555  00000-0  98591-3 0  9995,2 54096  53.2172  19.3335 0003001  15.2071 151.4863 15.73111658  1300,6728.147,91.538,352.031,347.99300000000005,0.0
54096.0,STARLINK-5188,PAYLOAD,2022-11-15 22:00:00,15.73205888,0.0002849,53.2174,17.6805,14.8049,240.7733,-2.2985e-05,-3.848e-05,0.0,0 STARLINK-5188,1 54096U 22136AX  22319.91667824 -.00003848  00000-0 -22985-4 0  9993,2 54096  53.2174  17.6805 0002849  14.8049 240.7733 15.73205888  1301,6727.878000000002,91.533,351.66,347.827,0.0
54096.0,STARLINK-5188,PAYLOAD,2022-11-16 00:00:00,15.73202094,0.0002851,53.2172,17.2677,15.0823,352.7312,2.684e-05,3.147e-05,0.0,0 STARLINK-5188,1 54096U 22136AX  22320.00001157  .00003147  00000-0  26840-4 0  9990,2 54096  53.2172  17.2677 0002851  15.0823 352.7312 15.73202094  4652,6727.889,91.533,351.672,347.836,0.0
54096.0,STARLINK-5188,PAYLOAD,2022-11-16 14:00:01,15.73201023,0.000297,53.2174,14.3831,14.9865,58.5265,4.4453e-05,5.622e-05,0.0,0 STARLINK-5188,1 54096U 22136AX  22320.58335648  .00005622  00000-0  44453-4 0  9998,2 54096  53.2174  14.3831 0002970  14.9865  58.5265 15.73201023  1308,6727.892,91.533,351.755,347.759,0.0
54096.0,STARLINK-5188,PAYLOAD,2022-11-16 22:00:08,15.73203482,0.000284,53.2176,12.7312,15.1082,147.7328,1.2523e-05,1.136e-05,0.0,0 STARLINK-5188,1 54096U 22136AX  22320.91675926  .00001136  00000-0  12523-4 0  9990,2 54096  53.2176  12.7312 0002840  15.1082 147.7328 15.73203482  1308,6727.885,91.533,351.661,347.84,0.0
54096.0,STARLINK-5188,PAYLOAD,2022-11-17 06:00:00,15.73241955,0.0003133,53.2158,11.0899,12.1644,239.1993,-0.00055108,-0.00077417,0.0,0 STARLINK-5188,1 54096U 22136AX  22321.25001157 -.00077417  00000-0 -55108-3 0  9999,2 54096  53.2158  11.0899 0003133  12.1644 239.1993 15.73241955  4840,6727.776,91.531,351.74800000000016,347.533,0.0
